[{"OBJECT_NAME":"OBJECT E","OBJECT_ID":"2024-092E","EPOCH":"2026-03-09T21:25:47.709120","MEAN_MOTION":15.32997986,"ECCENTRICITY":0.0008531,"INCLINATION":97.642,"RA_OF_ASC_NODE":198.2099,"ARG_OF_PERICENTER":142.2606,"MEAN_ANOMALY":217.9236,"EPHEMERIS_TYPE":0,"CLASSIFICATION_TYPE":"U","NORAD_CAT_ID":59777,"ELEMENT_SET_NO":999,"REV_AT_EPOCH":10051,"BSTAR":0.00078641119,"MEAN_MOTION_DOT":0.00025066,"MEAN_MOTION_DDOT":0},{"OBJECT_NAME":"STARLINK-34414","OBJECT_ID":"2025-137AC","EPOCH":"2026-03-09T21:30:53.849376","MEAN_MOTION":15.30213049,"ECCENTRICITY":0.00012426,"INCLINATION":53.159,"RA_OF_ASC_NODE":334.4765,"ARG_OF_PERICENTER":115.3515,"MEAN_ANOMALY":244.7615,"EPHEMERIS_TYPE":0,"CLASSIFICATION_TYPE":"U","NORAD_CAT_ID":64620,"ELEMENT_SET_NO":999,"REV_AT_EPOCH":4076,"BSTAR":0.00092246412,"MEAN_MOTION_DOT":0.00027072,"MEAN_MOTION_DDOT":0}]
